{
    "links": {
        "self": "http://www.neowsapp.com/rest/v1/neo/3702685?api_key=iIulBulltgU6a56xZRHN4H3l9WmuAYTsLGpBGhQ2"
    },
    "id": "3702685",
    "neo_reference_id": "3702685",
    "name": "(2014 XE32)",
    "designation": "2014 XE32",
    "nasa_jpl_url": "http://ssd.jpl.nasa.gov/sbdb.cgi?sstr=3702685",
    "absolute_magnitude_h": 26.4,
    "estimated_diameter": {
        "kilometers": {
            "estimated_diameter_min": 0.0139493823,
            "estimated_diameter_max": 0.0311917671
        },
        "meters": {
            "estimated_diameter_min": 13.9493822934,
            "estimated_diameter_max": 31.1917670523
        },
        "miles": {
            "estimated_diameter_min": 0.0086677416,
            "estimated_diameter_max": 0.0193816595
        },
        "feet": {
            "estimated_diameter_min": 45.7656914036,
            "estimated_diameter_max": 102.3351970157
        }
    },
    "is_potentially_hazardous_asteroid": false,
    "close_approach_data": [
        {
            "close_approach_date": "2014-12-10",
            "close_approach_date_full": "2014-Dec-10 12:48",
            "epoch_date_close_approach": 1418215680000,
            "relative_velocity": {
                "kilometers_per_second": "13.5457793359",
                "kilometers_per_hour": "48764.8056093865",
                "miles_per_hour": "30300.5537965658"
            },
            "miss_distance": {
                "astronomical": "0.0157563748",
                "lunar": "6.1292297972",
                "kilometers": "2357120.109001676",
                "miles": "1464646.5191720888"
            },
            "orbiting_body": "Earth"
        }
    ],
    "orbital_data": {
        "orbit_id": "5",
        "orbit_determination_date": "2017-04-06 08:36:51",
        "first_observation_date": "2014-12-13",
        "last_observation_date": "2014-12-24",
        "data_arc_in_days": 11,
        "observations_used": 19,
        "orbit_uncertainty": "8",
        "minimum_orbit_intersection": ".00377245",
        "jupiter_tisserand_invariant": "3.132",
        "epoch_osculation": "2457006.5",
        "eccentricity": ".650030554634681",
        "semi_major_axis": "2.501951388246979",
        "inclination": "2.864520017250782",
        "ascending_node_longitude": "260.5303970429353",
        "orbital_period": "1445.495446149303",
        "perihelion_distance": ".8756065396757854",
        "perihelion_argument": "131.4750363534727",
        "aphelion_distance": "4.128296236818174",
        "perihelion_time": "2456970.060214896065",
        "mean_anomaly": "9.075312324478691",
        "mean_motion": ".2490495566478706",
        "equinox": "J2000",
        "orbit_class": {
            "orbit_class_type": "APO",
            "orbit_class_description": "Near-Earth asteroid orbits which cross the Earth’s orbit similar to that of 1862 Apollo",
            "orbit_class_range": "a (semi-major axis) > 1.0 AU; q (perihelion) < 1.017 AU"
        }
    },
    "is_sentry_object": false
}